    <HTML><HEAD><TITLE>Human Space Flight (HSF) - Realtime Data
    </TITLE>
         
    
    <LINK REL="stylesheet" HREF="/hsf_home_style.css" TYPE="text/css"><LINK REL="stylesheet" HREF="/realdata/tracking/clocks.css" TYPE="text/css"><!--
    ////    *_OVER.JS PROVIDES HTML FOR GRAPHICS    ////
    --><SCRIPT TYPE="text/javascript" LANGUAGE="javascript">
    
      var firstLevel = '<'+'script language="javascript" src="/!_js_files/hsf_realdata_over.js"></'+'script>';
    
    </SCRIPT>
    
    <!--
    ////    *_NAV.JS PROVIDES MOUSEOVERS    ////
    -->
    
    <SCRIPT TYPE="text/javascript" SRC="/!_js_files/hsf_realdata_nav.js" LANGUAGE="javascript"></SCRIPT>
    
      
    <SCRIPT LANGUAGE="javascript">
    <!---
    
    function buildArray(){
    var a = buildArray.arguments;
    for (i=0; i<a.length; i++){
    this[i] = a[i];
    }
    
    this.length = a.length;
    } 
    
    var urls1 = new buildArray("",
    "ksclive/index.html",
    "ksclive/kscv01.html",
    "ksclive/kscv02.html",
    "ksclive/kscv03.html",
    "ksclive/kscv04.html",
    "ksclive/kscv05.html",
    "ksclive/kscv06.html",
    "ksclive/kscv07.html",
    "ksclive/kscv08.html",
    "ksclive/kscv09.html",
    "ksclive/kscv10.html",
    "ksclive/kscv11.html",
    "ksclive/kscv12.html",
    "ksclive/kscv13.html",
    "ksclive/kscv14.html",
    "ksclive/kscv15.html"); 
    
    function go(which, num, win){
    n = which.selectedIndex;
    
    if (n != 0){
    var url = eval("urls" + num + "[n]")
    
    if (win){
    openWindow(url); 
    }
    
    else{ 
    location.href = url;
    }
    }
    }
    
    //-->
    </SCRIPT></HEAD><BODY ALINK="#ff0000" VLINK="#800000" LINK="#cc0000" TEXT="#000000" BGCOLOR="#ffffff" > 
    
    
         
    
    <!-- 
    ////    BEGIN --    ////
    ////    IMAGE MAP FOR 2ND LEVEL MENUS    ////
    -->
    
      <MAP NAME="level2menu"><AREA ONMOUSEOUT="timeoutId = setTimeout('menuLinks(0)',1);" ONMOUSEOVER="clearTimeout (timeoutId);" HREF="" ALT="" COORDS="0,-1,67,26" SHAPE="RECT"><AREA ONMOUSEOUT="timeoutId = setTimeout('menuLinks(0)',1);" ONMOUSEOVER="clearTimeout (timeoutId);" HREF="" ALT="" COORDS="67,-1,134,26" SHAPE="RECT"><AREA ONMOUSEOUT="timeoutId = setTimeout('menuLinks(0)',1);" ONMOUSEOVER="clearTimeout (timeoutId);" HREF="" ALT="" COORDS="134,-1,201,26" SHAPE="RECT"><AREA ONMOUSEOUT="timeoutId = setTimeout('menuLinks(0)',1);" ONMOUSEOVER="clearTimeout (timeoutId);" HREF="" ALT="" COORDS="201,-1,268,26" SHAPE="RECT"><AREA ONMOUSEOUT="timeoutId = setTimeout('menuLinks(0)',1);" ONMOUSEOVER="clearTimeout (timeoutId);" HREF="" ALT="" COORDS="268,-1,335,26" SHAPE="RECT"><AREA ONMOUSEOUT="timeoutId = setTimeout('menuLinks(0)',1);" ONMOUSEOVER="clearTimeout (timeoutId);" HREF="" ALT="" COORDS="335,-1,402,26" SHAPE="RECT"><AREA ONMOUSEOUT="timeoutId = setTimeout('menuLinks(0)',1);" ONMOUSEOVER="clearTimeout (timeoutId);" HREF="" ALT="" COORDS="402,-1,469,26" SHAPE="RECT"><AREA ONMOUSEOUT="timeoutId = setTimeout('menuLinks(0)',1);" ONMOUSEOVER="clearTimeout (timeoutId);" HREF="" ALT="" COORDS="469,-1,536,26" SHAPE="RECT"><AREA ONMOUSEOUT="timeoutId = setTimeout('menuLinks(0)',1);" ONMOUSEOVER="clearTimeout (timeoutId);" HREF="" ALT="" COORDS="536,-1,600,26" SHAPE="RECT"></MAP>
    
    <!-- 
    ////    END --    ////
    ////    IMAGE MAP FOR 2ND LEVEL MENUS    ////
    -->
    
    <TABLE ALIGN="CENTER" BORDER="0" WIDTH="600" CELLPADDING="0" CELLSPACING="0"><TR><TD><IMG USEMAP="#Map" BORDER="0" WIDTH="600" HEIGHT="55" SRC="/graphics/new_home/hsf_hdr_main2.gif"><MAP NAME="Map"><AREA TITLE="Return to Human Space Flight home page" HREF="/index.html" ALT="Return to Human Space Flight home page" COORDS="424,26,587,46" SHAPE="RECT"></MAP></TD></TR><!-- 
    ////    BEGIN -- 1ST LEVEL MENU OPTIONS    ////
    ////    REFERENCES *_OVER.JS WHICH PROVIDES HTML FOR GRAPHICS    ////
    ////    THE VARIABLE firstLevel IS CALLED INSIDE THE HEAD TAG    ////
    --><TR><TD WIDTH="600" VALIGN="TOP" COLSPAN="3"> 
          <SCRIPT LANGUAGE="javascript">
            <!-- 
              document.write(firstLevel)
            //-->
          </SCRIPT></TD></TR><!-- 
    ////    END -- 1ST LEVEL MENU OPTIONS    ////
    --><!-- 
    ////    BEGIN -- 2ND LEVEL MENU OPTIONS    ////
    ////    THIS SECTION CALLS THE MENULINKS FUNCTION    ////
    --><TR><TD WIDTH="600" VALIGN="TOP" COLSPAN="3"><IMG NAME="low1" ALT="" USEMAP="#level2menu" BORDER="0" WIDTH="600" HEIGHT="24" SRC="/graphics/new_home/hsf_l2.gif"></TD></TR><!-- 
    ////    END -- 2ND LEVEL MENU OPTIONS    ////
    --><TR><TD><IMG WIDTH="600" HEIGHT="5" SRC="/graphics/new_home/hsf_hdr_btm.gif"></TD></TR></TABLE><BR><A NAME="skipLinks"></A>
    
    
    <!--Begin Main Content Area Here-->
    
        
    <table width="600" border="0" cellspacing="0" cellpadding="0" align="center">
        
          <tr>
        
            <td>
        
            <PRE>
    
  <B> ISS  TRAJECTORY DATA</B>
 
   Lift off time (UTC)  :  N/A
   Area (sq ft)  :  14929.5432
   Drag Coefficient (Cd)  :   2.00
   Monthly MSFC 50% solar flux (F10.7-jansky)  :   102.5
   Monthly MSFC 50% earth geomagnetic index (Kp)  :   3.055
   ET - UTC  (sec) :   67.18
   UT1 - UTC (sec) :    0.00
 
 
   Maneuvers contained within the current ephemeris are as follows:
 
 
   IMPULSIVE TIG (GMT)   M50 DVx(FPS)      LVLH DVx(FPS)      DVmag(FPS) 
   IMPULSIVE TIG (MET)   M50 DVy(FPS)      LVLH DVy(FPS)      Invar Sph HA
   DT                    M50 DVz(FPS)      LVLH DVz(FPS)      Invar Sph HP 
   ------------------------------------------------------------------------
   084/04:47:30.000           0.0               0.0              0.0    
   N/A                        0.0               0.0              220.8  
   000/00:00:00.000           0.0               0.0              214.7  
   
   086/10:40:00.000           0.0               0.0              0.0    
   N/A                        0.0               0.0              220.9  
   000/00:00:00.000           0.0               0.0              214.7  
   
   090/14:15:30.000           0.0               0.0              0.0    
   N/A                        0.0               0.0              221.1  
   000/00:00:00.000           0.0               0.0              214.3  
   
   091/16:23:58.000           0.0               0.0              0.0    
   N/A                        0.0               0.0              221.2  
   000/00:00:00.000           0.0               0.0              214.2  
   
   093/17:58:46.000           0.0               0.0              0.0    
   N/A                        0.0               0.0              221.2  
   000/00:00:00.000           0.0               0.0              214.0  
   
   094/19:05:00.000           0.0               0.0              0.0    
   N/A                        0.0               0.0              221.2  
   000/00:00:00.000           0.0               0.0              214.1  
   
 
 
    Coasting Arc #1 (Orbit 3164)
    ---------------------------------------
 
    Vector Time (GMT): 2016/083/12:00:00.000
    Vector Time (MET): N/A
    Weight (LBS)     : 904106.9
 
              M50 Cartesian                         M50 Keplerian  
    -----------------------------------       --------------------------------
     X    =         147858.17                 A    =         6781988.19  meter
     Y    =        5428548.85  meter          E    =           .0006335
     Z    =       -4068247.41                 I    =           51.93906
     XDOT =      -5820.601599                 Wp   =           92.97723
     YDOT =       3086.824901  meter/sec      RA   =          124.35421  deg
     ZDOT =       3912.344454                 TA   =          217.42753
                                              MA   =          217.47166
                                              Ha   =            220.778  n.mi
                                              Hp   =            214.670
 
              M50 Cartesian                         J2K Cartesian  
    -----------------------------------       --------------------------------
     X    =         485098.98                 X    =          106905.57
     Y    =       17810199.65  feet           Y    =         5429972.66  meter
     Z    =      -13347268.41                 Z    =        -4067629.51
     XDOT =     -19096.461939                 XDOT =       -5873.691106
     YDOT =      10127.378283  feet/sec       YDOT =        3021.438858  meter/sec
     ZDOT =      12835.775767                 ZDOT =        3883.940021
 
              TDR Cartesian                         TDR Cartesian  
    -----------------------------------       --------------------------------
     X    =         744400.88                 X    =          226893.39
     Y    =       17802602.53  feet           Y    =         5426233.25  meter
     Z    =      -13345460.54                 Z    =        -4067696.37
     XDOT =     -17780.782432                 XDOT =       -5419.582485
     YDOT =      10260.634037  feet/sec       YDOT =        3127.441254  meter/sec
     ZDOT =      12711.854210                 ZDOT =        3874.573163
  
  
    The mean element set is posted at the UTC for which position is
    just north of the next ascending node relative to the above
    vector time
 
 
    TWO LINE MEAN ELEMENT SET
  
    ISS
    1 25544U 98067A   16083.50891392  .00016717  00000-0  10270-3 0  9002
    2 25544  51.6416 125.3507 0002074 344.8096  15.2994 15.54241754 31658
  
  
    Satellite: ISS
    Catalog Number: 25544
    Epoch time:      16083.50891392   =   yrday.fracday
    Element set:     900
    Inclination:       51.6416  deg
    RA of node:       125.3507  deg
    Eccentricity:     .0002074     
    Arg of perigee:   344.8096  deg
    Mean anomaly:      15.2994  deg
    Mean motion:   15.54241754  rev/day
    Decay rate:    1.67170E-04  rev/day^2
    Epoch rev:            3165
    Checksum:              304
 
